CZ-2D R/B               
1 28738U 05024B   26086.97931677  .00045198  00000+0  52171-3 0  9995
2 28738  97.3587 102.8182 0002595 342.7816  17.3353 15.61793684142631
ALOS (DAICHI)           
1 28931U 06002A   26087.15562813  .00001345  00000+0  23323-3 0  9993
2 28931  98.1247  43.0227 0000854 105.7417 254.3883 14.69864641 76191
H-2A R/B                
1 28932U 06002B   26087.28082157  .00012913  00000+0  63739-3 0  9994
2 28932  98.2444 235.9131 0052397 177.4443 182.7066 15.16824211 97251
RESURS-DK 1             
1 29228U 06021A   26087.24776837  .00002577  00000+0  15227-3 0  9999
2 29228  69.9337 189.0173 0001149  55.8372 304.2903 15.12860491 90339
CZ-4B R/B               
1 29507U 06046C   26087.07851386  .00004724  00000+0  23882-3 0  9992
2 29507  97.5560 131.9368 0032664 201.2425 158.7454 15.17083277 62839
CZ-2C R/B               
1 31114U 07010B   26087.25430683  .00000141  00000+0  84101-4 0  9995
2 31114  98.3998 199.6044 0058060 239.6067 119.9364 14.20252773982356
COSMO-SKYMED 1          
1 31598U 07023A   26087.25132362  .00003328  00000+0  29692-3 0  9991
2 31598  97.8876 278.4349 0000953  98.7854 261.3475 14.96665258 17680
COSMOS 2428             
1 31792U 07029A   26087.22459608 -.00000035  00000+0  67935-5 0  9992
2 31792  70.9434 164.4428 0009690 258.0073 101.9962 14.12948349966711
SL-16 R/B               
1 31793U 07029B   26087.22909657  .00000048  00000+0  49910-4 0  9992
2 31793  70.9748 133.4151 0002683 277.7142 145.8870 14.14843382967998
KORONAS-FOTON           
1 33504U 09003A   26087.17539407  .00015589  00000+0  34251-3 0  9991
2 33504  82.4277 256.6494 0011786  89.9015 270.3583 15.43805680948591
CZ-2C R/B               
1 37731U 11030B   26087.11143894  .00001458  00000+0  18984-3 0  9990
2 37731  97.8575  44.0103 0051134 291.1509  78.8287 14.81285074792825
H-2A R/B                
1 38341U 12025E   26086.93078366  .00003597  00000+0  32690-3 0  9999
2 38341  98.4761  55.4424 0042712 252.5555 107.0992 14.95293499750943
SHIJIAN-16 (SJ-16)      
1 39358U 13057A   26087.26535911  .00001949  00000+0  19267-3 0  9999
2 39358  74.9723 149.9243 0015250  64.2713 296.0047 14.92419346674277
SL-4 R/B                
1 39679U 14021B   26086.73990852  .00018474  00000+0  39896-3 0  9998
2 39679  51.6043 249.1796 0095735 168.7371 191.5787 15.39787110659050
ALOS-2                  
1 39766U 14029A   26087.25010892  .00001773  00000+0  24436-3 0  9996
2 39766  97.9186 185.5772 0001925 103.9352 256.2073 14.79444290639612
YAOGAN-29               
1 41038U 15069A   26087.28172153  .00000062  00000+0  14231-4 0  9991
2 41038  98.0123 115.7594 0000547   1.3901 358.7313 14.83013094558633
ASTRO-H (HITOMI)        
1 41337U 16012A   26086.74554232  .00002973  00000+0  17214-3 0  9990
2 41337  30.9986 240.0182 0009620 153.3747 206.7386 15.10114372554965
HXMT (HUIYAN)           
1 42758U 17034A   26087.20658620  .00005596  00000+0  28073-3 0  9990
2 42758  43.0140 273.7089 0031963 349.2571  10.7591 15.17692640485358
SAOCOM 1A               
1 43641U 18076A   26087.25840302 -.00000070  00000+0 -22663-5 0  9999
2 43641  97.8907 275.1687 0001442  86.0400 274.0978 14.82157513404119
H-2A R/B                
1 43682U 18084L   26087.16510463  .00021909  00000+0  50864-3 0  9999
2 43682  98.8712 308.5108 0023805 320.9414  39.0109 15.42116050408623
SAOCOM 1B               
1 46265U 20059A   26087.22212773  .00000700  00000+0  94439-4 0  9997
2 46265  97.8908 274.2309 0001539  86.9978 273.1412 14.82156397301491
CSS (TIANHE)            
1 48274U 21035A   26087.20348046  .00017871  00000+0  20559-3 0  9993
2 48274  41.4668  95.4304 0004098  43.6624 316.4539 15.61574783280500
COSMOS 2550             
1 48865U 21056A   26087.23189779 -.00000186  00000+0  16054-6 0  9991
2 48865  67.1425 344.7945 0008421 269.6133  90.4056 15.33829782266308
CZ-2C R/B               
1 52794U 22058K   26087.08488487  .00039381  00000+0  54665-3 0  9996
2 52794  50.1874 223.5679 0041501 279.7011  79.9274 15.55565051212995
CZ-2C R/B               
1 54039U 22132E   26087.26183527  .00051097  00000+0  54535-3 0  9994
2 54039  97.2961  91.1671 0017788  30.7941 329.4358 15.63589754193276
GSLV R/B                
1 54149U 22138AN  26087.23905017  .00002428  00000+0  20801-3 0  9998
2 54149  87.3863 160.1529 0024033  85.6352 274.7625 14.96890474186702
XRISM                   
1 57800U 23137A   26087.26177371  .00006390  00000+0  36021-3 0  9995
2 57800  31.0015 163.5177 0007943 226.1658 133.8324 15.11709896140607
ACS3                    
1 59588U 24077B   26087.21334028  .00024069  00000+0  18935-1 0  9998
2 59588  97.1971  24.1612 0072358  34.2096 326.3700 13.90444169 96777
SZ-21 MODULE            
1 66515U 25246C   26087.27448310  .00043062  00000+0  34891-3 0  9996
2 66515  41.4743  88.8326 0001568 210.3682 149.7069 15.69967006 20990
